[{"OBJECT_NAME":"STARLINK-5795","OBJECT_ID":"2023-042BF","EPOCH":"2026-03-09T22:00:01.999584","MEAN_MOTION":15.12176175,"ECCENTRICITY":7.557e-5,"INCLINATION":43.0011,"RA_OF_ASC_NODE":28.4013,"ARG_OF_PERICENTER":288.0234,"MEAN_ANOMALY":271.708,"EPHEMERIS_TYPE":0,"CLASSIFICATION_TYPE":"U","NORAD_CAT_ID":56039,"ELEMENT_SET_NO":999,"REV_AT_EPOCH":557,"BSTAR":0.0026821947,"MEAN_MOTION_DOT":0.00047185,"MEAN_MOTION_DDOT":0},{"OBJECT_NAME":"CZ-6A DEB","OBJECT_ID":"2024-140XA","EPOCH":"2026-03-09T13:38:46.141440","MEAN_MOTION":14.97207457,"ECCENTRICITY":0.0079782,"INCLINATION":88.8472,"RA_OF_ASC_NODE":268.9899,"ARG_OF_PERICENTER":170.4337,"MEAN_ANOMALY":189.8439,"EPHEMERIS_TYPE":0,"CLASSIFICATION_TYPE":"U","NORAD_CAT_ID":61385,"ELEMENT_SET_NO":999,"REV_AT_EPOCH":8131,"BSTAR":0.0034461,"MEAN_MOTION_DOT":0.00042743,"MEAN_MOTION_DDOT":0}]
